ASNARO-2                
1 43152U 18007A   26139.26594159  .00005318  00000+0  23290-3 0  9998
2 43152  97.3981 146.6437 0001750  92.4668 267.6769 15.22443286463017
JILIN-1 07              
1 43159U 18008E   26139.33446277  .00005338  00000+0  16340-3 0  9991
2 43159  97.1784 160.0419 0009319 150.2486 209.9289 15.34195739460577
JILIN-1 08              
1 43160U 18008F   26139.25173543  .00004658  00000+0  14703-3 0  9992
2 43160  97.1815 159.3060 0006702 160.3533 199.7969 15.33303544460514
LEMUR-2-KADI            
1 43184U 18014E   26139.30491012  .00318225  38751-4  11424-2 0  9998
2 43184  97.4473  69.0845 0004533 121.9091 238.2622 15.88724183456496
S-NET D                 
1 43186U 18014G   26139.23175702  .00002971  00000+0  15644-3 0  9995
2 43186  97.5386  44.2066 0009951 113.7064 246.5214 15.16367568454375
S-NET B                 
1 43187U 18014H   26139.24264526  .00002820  00000+0  14876-3 0  9999
2 43187  97.5391  44.2032 0010632 110.1241 250.1136 15.16337900454372
S-NET A                 
1 43188U 18014J   26139.23078207  .00002984  00000+0  15707-3 0  9993
2 43188  97.5400  44.3947 0010554 110.6870 249.5496 15.16374495454377
S-NET C                 
1 43189U 18014K   26139.24636733  .00002536  00000+0  13411-3 0  9992
2 43189  97.5418  44.4805 0012016 105.0210 255.2353 15.16329201452922
PAZ                     
1 43215U 18020A   26139.25669478  .00001117  00000+0  56400-4 0  9992
2 43215  97.4455 147.0537 0001649  88.7998 271.3425 15.19150688456617
GOES 17                 
1 43226U 18022A   26139.22069777 -.00000183  00000+0  00000+0 0  9992
2 43226   0.8655  86.0930 0000370 314.8537 185.9157  1.00271470 30135
LKW-4                   
1 43236U 18025A   26139.04125823  .00027449  00000+0  34219-3 0  9997
2 43236  97.6340 307.6898 0002898  70.0787 290.0781 15.59876638455487
ZHUHAI-1 OVS-02         
1 43440U 18040B   26139.29119058  .00004151  00000+0  17102-3 0  9998
2 43440  97.0403 158.2416 0004127  33.5280 326.6219 15.24597763448310
ZHUHAI-1 OHS-02         
1 43441U 18040C   26139.29213598  .00004746  00000+0  19032-3 0  9997
2 43441  97.0387 165.1534 0008430 346.4271  13.6740 15.25416787109871
GAOFEN-6                
1 43484U 18048A   26139.33912148  .00000294  00000+0  49092-4 0  9998
2 43484  97.7771 203.0775 0010510 268.7445  91.2562 14.76593221429134
LUOJIA-1 01             
1 43485U 18048B   26139.31081057  .00001557  00000+0  17908-3 0  9996
2 43485  97.8106 217.9641 0008264 207.2017 152.8767 14.87164555429924
PAKTES 1A               
1 43529U 18056A   26139.30156674  .00001559  00000+0  13380-3 0  9993
2 43529  98.1230 294.5634 0021597 202.3122 157.7162 14.98921986427590
PRSS-1                  
1 43530U 18056B   26139.29158291  .00000783  00000+0  10523-3 0  9994
2 43530  97.7830 207.9602 0001867  91.8178 268.3249 14.81939067424151
HAIYANG-1C              
1 43609U 18068A   26139.29187108 -.00000153  00000+0 -39203-4 0  9993
2 43609  98.5198 212.0157 0010982 173.9032 186.2288 14.34168346402941
SSTL S1-4               
1 43618U 18071A   26139.26369253  .00001303  00000+0  12048-3 0  9990
2 43618  97.5064  12.0754 0001375  78.2406 281.8970 14.96179095418613
HAIYANG-2B              
1 43655U 18081A   26139.29259399 -.00000085  00000+0 -39620-4 0  9998
2 43655  99.3288 148.4845 0001495  45.5514 314.5760 13.79306384380945
CFOSAT                  
1 43662U 18083A   26139.25706588  .00001829  00000+0  97208-4 0  9992
2 43662  97.3610 144.6404 0001545  61.9221 298.2169 15.16503711418053
TEN-KOH                 
1 43677U 18084G   26139.09450142  .00001136  00000+0  89831-4 0  9997
2 43677  98.0751 330.2354 0008913 211.2391 148.8304 15.02787585411797
DIWATA-2B               
1 43678U 18084H   26139.29261686  .00001883  00000+0  15531-3 0  9997
2 43678  98.1109 334.2590 0011680 270.1715  89.8169 15.00298063411880
STARS-AO                
1 43679U 18084J   26138.52054533  .00003884  00000+0  20213-3 0  9990
2 43679  98.0526 350.6671 0000638 254.8333 105.2828 15.16691941412976
AUTCUBE 2               
1 43681U 18084K   26138.47631865  .00001944  00000+0  12437-3 0  9990
2 43681  98.0728 343.0773 0010035 137.1335 223.0677 15.09864927412440
METOP-C                 
1 43689U 18087A   26139.27951454  .00000060  00000+0  47347-4 0  9996
2 43689  98.6659 199.4088 0000489 146.8266 213.2942 14.21503420390724
ES'HAIL 2               
1 43700U 18090A   26139.24357788  .00000144  00000+0  00000+0 0  9994
2 43700   0.0158 337.1039 0001287 111.3645 261.9369  1.00269765 27387
MOHAMMED VI-B           
1 43717U 18095A   26139.25127264  .00000471  00000+0  73913-4 0  9993
2 43717  97.9565 211.9728 0001250  82.1037 278.0315 14.77075902403919
HYSIS                   
1 43719U 18096A   26139.24874169  .00000256  00000+0  41986-4 0  9994
2 43719  97.9850 206.2208 0000999 116.4328 243.6986 14.78626381403142
