OBJECT_NAME,OBJECT_ID,EPOCH,MEAN_MOTION,ECCENTRICITY,INCLINATION,RA_OF_ASC_NODE,ARG_OF_PERICENTER,MEAN_ANOMALY,EPHEMERIS_TYPE,CLASSIFICATION_TYPE,NORAD_CAT_ID,ELEMENT_SET_NO,REV_AT_EPOCH,BSTAR,MEAN_MOTION_DOT,MEAN_MOTION_DDOT
ASNARO-2,2018-007A,2026-05-19T06:22:57.353376,15.22443286,.00017505,97.3981,146.6437,92.4668,267.6769,0,U,43152,999,46301,.23289687E-3,.5318E-4,0
JILIN-1 07,2018-008E,2026-05-19T08:01:37.583328,15.34195739,.00093195,97.1784,160.0419,150.2486,209.9289,0,U,43159,999,46057,.16340481E-3,.5338E-4,0
JILIN-1 08,2018-008F,2026-05-19T06:02:29.941152,15.33303544,.00067025,97.1815,159.3060,160.3533,199.7969,0,U,43160,999,46051,.14703464E-3,.4658E-4,0
LEMUR-2-KADI,2018-014E,2026-05-19T07:19:04.234368,15.88724183,.00045331,97.4473,69.0845,121.9091,238.2622,0,U,43184,999,45649,.11424102E-2,.318225E-2,.3875066E-4
S-NET D,2018-014G,2026-05-19T05:33:43.806528,15.16367568,.00099515,97.5386,44.2066,113.7064,246.5214,0,U,43186,999,45437,.15644024E-3,.2971E-4,0
S-NET B,2018-014H,2026-05-19T05:49:24.550464,15.16337900,.00106323,97.5391,44.2032,110.1241,250.1136,0,U,43187,999,45437,.14876225E-3,.282E-4,0
S-NET A,2018-014J,2026-05-19T05:32:19.570848,15.16374495,.00105548,97.5400,44.3947,110.6870,249.5496,0,U,43188,999,45437,.15706765E-3,.2984E-4,0
S-NET C,2018-014K,2026-05-19T05:54:46.137312,15.16329201,.00120165,97.5418,44.4805,105.0210,255.2353,0,U,43189,999,45292,.13410903E-3,.2536E-4,0
PAZ,2018-020A,2026-05-19T06:09:38.428992,15.19150688,.00016494,97.4455,147.0537,88.7998,271.3425,0,U,43215,999,45661,.56399531E-4,.1117E-4,0
GOES 17,2018-022A,2026-05-19T05:17:48.287328,1.00271470,.000037,0.8655,86.0930,314.8537,185.9157,0,U,43226,999,3013,0,-.183E-5,0
LKW-4,2018-025A,2026-05-19T00:59:24.711072,15.59876638,.00028981,97.6340,307.6898,70.0787,290.0781,0,U,43236,999,45548,.34219164E-3,.27449E-3,0
ZHUHAI-1 OVS-02,2018-040B,2026-05-19T06:59:18.866112,15.24597763,.00041273,97.0403,158.2416,33.5280,326.6219,0,U,43440,999,44831,.17102055E-3,.4151E-4,0
ZHUHAI-1 OHS-02,2018-040C,2026-05-19T07:00:40.548672,15.25416787,.00084305,97.0387,165.1534,346.4271,13.6740,0,U,43441,999,10987,.19031745E-3,.4746E-4,0
GAOFEN-6,2018-048A,2026-05-19T08:08:20.095872,14.76593221,.00105102,97.7771,203.0775,268.7445,91.2562,0,U,43484,999,42913,.49091686E-4,.294E-5,0
LUOJIA-1 01,2018-048B,2026-05-19T07:27:34.033248,14.87164555,.00082643,97.8106,217.9641,207.2017,152.8767,0,U,43485,999,42992,.17907929E-3,.1557E-4,0
PAKTES 1A,2018-056A,2026-05-19T07:14:15.366336,14.98921986,.00215976,98.1230,294.5634,202.3122,157.7162,0,U,43529,999,42759,.13380219E-3,.1559E-4,0
PRSS-1,2018-056B,2026-05-19T06:59:52.763424,14.81939067,.00018677,97.7830,207.9602,91.8178,268.3249,0,U,43530,999,42415,.10523462E-3,.783E-5,0
HAIYANG-1C,2018-068A,2026-05-19T07:00:17.661312,14.34168346,.0010982,98.5198,212.0157,173.9032,186.2288,0,U,43609,999,40294,-.39202528E-4,-.153E-5,0
SSTL S1-4,2018-071A,2026-05-19T06:19:43.034592,14.96179095,.0001375,97.5064,12.0754,78.2406,281.8970,0,U,43618,999,41861,.12048161E-3,.1303E-4,0
HAIYANG-2B,2018-081A,2026-05-19T07:01:20.120736,13.79306384,.00014957,99.3288,148.4845,45.5514,314.5760,0,U,43655,999,38094,-.3961971E-4,-.85E-6,0
CFOSAT,2018-083A,2026-05-19T06:10:10.492032,15.16503711,.00015456,97.3610,144.6404,61.9221,298.2169,0,U,43662,999,41805,.97207756E-4,.1829E-4,0
TEN-KOH,2018-084G,2026-05-19T02:16:04.922688,15.02787585,.00089137,98.0751,330.2354,211.2391,148.8304,0,U,43677,999,41179,.89830675E-4,.1136E-4,0
DIWATA-2B,2018-084H,2026-05-19T07:01:22.096704,15.00298063,.00116809,98.1109,334.2590,270.1715,89.8169,0,U,43678,999,41188,.15530529E-3,.1883E-4,0
STARS-AO,2018-084J,2026-05-18T12:29:35.116512,15.16691941,.00006386,98.0526,350.6671,254.8333,105.2828,0,U,43679,999,41297,.20213345E-3,.3884E-4,0
AUTCUBE 2,2018-084K,2026-05-18T11:25:53.931360,15.09864927,.0010035,98.0728,343.0773,137.1335,223.0677,0,U,43681,999,41244,.12436964E-3,.1944E-4,0
METOP-C,2018-087A,2026-05-19T06:42:30.056256,14.21503420,.00004893,98.6659,199.4088,146.8266,213.2942,0,U,43689,999,39072,.47347071E-4,.6E-6,0
ES'HAIL 2,2018-090A,2026-05-19T05:50:45.128832,1.00269765,.00012872,0.0158,337.1039,111.3645,261.9369,0,U,43700,999,2738,0,.144E-5,0
MOHAMMED VI-B,2018-095A,2026-05-19T06:01:49.956096,14.77075902,.00012502,97.9565,211.9728,82.1037,278.0315,0,U,43717,999,40391,.73913357E-4,.471E-5,0
HYSIS,2018-096A,2026-05-19T05:58:11.282016,14.78626381,.00009999,97.9850,206.2208,116.4328,243.6986,0,U,43719,999,40314,.4198618E-4,.256E-5,0
